{
"type": "FeatureCollection",
"name": "settlement_exposure_2021-10-19",
"crs": { "type": "name", "properties": { "name": "urn:ogc:def:crs:OGC:1.3:CRS84" } },
"features": [
{ "type": "Feature", "properties": { "osm_id": "9140139087", "settlement_name": "Shalambi", "place_type": "locality", "longitude": 88.8126095, "latitude": 27.288923, "cell_id": "SKM_06047", "final_risk_score": 87.371967, "risk_level": "SEVERE", "association_method": "direct_intersection", "distance_to_risk_m": 0.0, "exposure_interpretation": "POTENTIALLY EXPOSED TO ELEVATED LANDSLIDE RISK" }, "geometry": { "type": "Point", "coordinates": [ 88.8126095, 27.288923 ] } },
{ "type": "Feature", "properties": { "osm_id": "342098686", "settlement_name": "Kyangsala", "place_type": "village", "longitude": 88.71323, "latitude": 27.36694, "cell_id": "SKM_05267", "final_risk_score": 86.069472, "risk_level": "SEVERE", "association_method": "direct_intersection", "distance_to_risk_m": 0.0, "exposure_interpretation": "POTENTIALLY EXPOSED TO ELEVATED LANDSLIDE RISK" }, "geometry": { "type": "Point", "coordinates": [ 88.71323, 27.36694 ] } },
{ "type": "Feature", "properties": { "osm_id": "342098791", "settlement_name": "Chatten", "place_type": "locality", "longitude": 88.55942, "latitude": 27.71576, "cell_id": "SKM_02483", "final_risk_score": 85.159883, "risk_level": "SEVERE", "association_method": "direct_intersection", "distance_to_risk_m": 0.0, "exposure_interpretation": "POTENTIALLY EXPOSED TO ELEVATED LANDSLIDE RISK" }, "geometry": { "type": "Point", "coordinates": [ 88.55942, 27.71576 ] } },
{ "type": "Feature", "properties": { "osm_id": "342097621", "settlement_name": "Gangtok", "place_type": "city", "longitude": 88.6122673, "latitude": 27.329046, "cell_id": "SKM_05677", "final_risk_score": 84.387432, "risk_level": "SEVERE", "association_method": "direct_intersection", "distance_to_risk_m": 0.0, "exposure_interpretation": "POTENTIALLY EXPOSED TO ELEVATED LANDSLIDE RISK" }, "geometry": { "type": "Point", "coordinates": [ 88.6122673, 27.329046 ] } },
{ "type": "Feature", "properties": { "osm_id": "342098716", "settlement_name": "Theagu", "place_type": "locality", "longitude": 88.7874369, "latitude": 27.3750452, "cell_id": "SKM_05191", "final_risk_score": 84.329756, "risk_level": "SEVERE", "association_method": "direct_intersection", "distance_to_risk_m": 0.0, "exposure_interpretation": "POTENTIALLY EXPOSED TO ELEVATED LANDSLIDE RISK" }, "geometry": { "type": "Point", "coordinates": [ 88.7874369, 27.3750452 ] } },
{ "type": "Feature", "properties": { "osm_id": "245756401", "settlement_name": "Namchi", "place_type": "town", "longitude": 88.3651981, "latitude": 27.1661262, "cell_id": "SKM_07093", "final_risk_score": 82.627887, "risk_level": "SEVERE", "association_method": "direct_intersection", "distance_to_risk_m": 0.0, "exposure_interpretation": "POTENTIALLY EXPOSED TO ELEVATED LANDSLIDE RISK" }, "geometry": { "type": "Point", "coordinates": [ 88.3651981, 27.1661262 ] } },
{ "type": "Feature", "properties": { "osm_id": "8568637913", "settlement_name": "Changgu", "place_type": "village", "longitude": 88.7709213, "latitude": 27.3778843, "cell_id": "SKM_05190", "final_risk_score": 82.507988, "risk_level": "SEVERE", "association_method": "direct_intersection", "distance_to_risk_m": 0.0, "exposure_interpretation": "POTENTIALLY EXPOSED TO ELEVATED LANDSLIDE RISK" }, "geometry": { "type": "Point", "coordinates": [ 88.7709213, 27.3778843 ] } },
{ "type": "Feature", "properties": { "osm_id": "342098800", "settlement_name": "Lachen", "place_type": "town", "longitude": 88.5495009, "latitude": 27.7306136, "cell_id": "SKM_02340", "final_risk_score": 81.437072, "risk_level": "SEVERE", "association_method": "direct_intersection", "distance_to_risk_m": 0.0, "exposure_interpretation": "POTENTIALLY EXPOSED TO ELEVATED LANDSLIDE RISK" }, "geometry": { "type": "Point", "coordinates": [ 88.5495009, 27.7306136 ] } },
{ "type": "Feature", "properties": { "osm_id": "342098339", "settlement_name": "Singtam", "place_type": "town", "longitude": 88.4970841, "latitude": 27.2319975, "cell_id": "SKM_06524", "final_risk_score": 81.331704, "risk_level": "SEVERE", "association_method": "direct_intersection", "distance_to_risk_m": 0.0, "exposure_interpretation": "POTENTIALLY EXPOSED TO ELEVATED LANDSLIDE RISK" }, "geometry": { "type": "Point", "coordinates": [ 88.4970841, 27.2319975 ] } },
{ "type": "Feature", "properties": { "osm_id": "342098351", "settlement_name": "Ravangla", "place_type": "town", "longitude": 88.3644723, "latitude": 27.3051271, "cell_id": "SKM_05915", "final_risk_score": 80.314545, "risk_level": "SEVERE", "association_method": "direct_intersection", "distance_to_risk_m": 0.0, "exposure_interpretation": "POTENTIALLY EXPOSED TO ELEVATED LANDSLIDE RISK" }, "geometry": { "type": "Point", "coordinates": [ 88.3644723, 27.3051271 ] } },
{ "type": "Feature", "properties": { "osm_id": "342098706", "settlement_name": "Sherathang", "place_type": "village", "longitude": 88.8152126, "latitude": 27.3803999, "cell_id": "SKM_05194", "final_risk_score": 79.694082, "risk_level": "SEVERE", "association_method": "direct_intersection", "distance_to_risk_m": 0.0, "exposure_interpretation": "POTENTIALLY EXPOSED TO ELEVATED LANDSLIDE RISK" }, "geometry": { "type": "Point", "coordinates": [ 88.8152126, 27.3803999 ] } },
{ "type": "Feature", "properties": { "osm_id": "342098314", "settlement_name": "Pakyong", "place_type": "town", "longitude": 88.5984989, "latitude": 27.2436107, "cell_id": "SKM_06455", "final_risk_score": 79.549419, "risk_level": "SEVERE", "association_method": "direct_intersection", "distance_to_risk_m": 0.0, "exposure_interpretation": "POTENTIALLY EXPOSED TO ELEVATED LANDSLIDE RISK" }, "geometry": { "type": "Point", "coordinates": [ 88.5984989, 27.2436107 ] } },
{ "type": "Feature", "properties": { "osm_id": "5532229344", "settlement_name": "Singling", "place_type": "village", "longitude": 88.1992078, "latitude": 27.1821336, "cell_id": "SKM_06948", "final_risk_score": 78.784787, "risk_level": "SEVERE", "association_method": "direct_intersection", "distance_to_risk_m": 0.0, "exposure_interpretation": "POTENTIALLY EXPOSED TO ELEVATED LANDSLIDE RISK" }, "geometry": { "type": "Point", "coordinates": [ 88.1992078, 27.1821336 ] } },
{ "type": "Feature", "properties": { "osm_id": "342098434", "settlement_name": "Rumdin", "place_type": "locality", "longitude": 88.172268, "latitude": 27.1362539, "cell_id": "SKM_07228", "final_risk_score": 78.423391, "risk_level": "SEVERE", "association_method": "direct_intersection", "distance_to_risk_m": 0.0, "exposure_interpretation": "POTENTIALLY EXPOSED TO ELEVATED LANDSLIDE RISK" }, "geometry": { "type": "Point", "coordinates": [ 88.172268, 27.1362539 ] } },
{ "type": "Feature", "properties": { "osm_id": "1477987344", "settlement_name": "Phong", "place_type": "village", "longitude": 88.4374753, "latitude": 27.1541356, "cell_id": "SKM_07155", "final_risk_score": 75.961277, "risk_level": "SEVERE", "association_method": "direct_intersection", "distance_to_risk_m": 0.0, "exposure_interpretation": "POTENTIALLY EXPOSED TO ELEVATED LANDSLIDE RISK" }, "geometry": { "type": "Point", "coordinates": [ 88.4374753, 27.1541356 ] } },
{ "type": "Feature", "properties": { "osm_id": "342104453", "settlement_name": "Gyalshing", "place_type": "town", "longitude": 88.2573, "latitude": 27.29004, "cell_id": "SKM_05992", "final_risk_score": 70.160242, "risk_level": "SEVERE", "association_method": "direct_intersection", "distance_to_risk_m": 0.0, "exposure_interpretation": "POTENTIALLY EXPOSED TO ELEVATED LANDSLIDE RISK" }, "geometry": { "type": "Point", "coordinates": [ 88.2573, 27.29004 ] } },
{ "type": "Feature", "properties": { "osm_id": "342098830", "settlement_name": "Phensang", "place_type": "locality", "longitude": 88.60886, "latitude": 27.42462, "cell_id": "SKM_04785", "final_risk_score": 61.967088, "risk_level": "HIGH", "association_method": "direct_intersection", "distance_to_risk_m": 0.0, "exposure_interpretation": "POTENTIALLY EXPOSED TO ELEVATED LANDSLIDE RISK" }, "geometry": { "type": "Point", "coordinates": [ 88.60886, 27.42462 ] } },
{ "type": "Feature", "properties": { "osm_id": "1477987342", "settlement_name": "Melli Bāzār", "place_type": "suburb", "longitude": 88.4577114, "latitude": 27.0901478, "cell_id": "SKM_07385", "final_risk_score": 59.668505, "risk_level": "HIGH", "association_method": "direct_intersection", "distance_to_risk_m": 0.0, "exposure_interpretation": "POTENTIALLY EXPOSED TO ELEVATED LANDSLIDE RISK" }, "geometry": { "type": "Point", "coordinates": [ 88.4577114, 27.0901478 ] } },
{ "type": "Feature", "properties": { "osm_id": "342098725", "settlement_name": "Tsomgo", "place_type": "village", "longitude": 88.7566799, "latitude": 27.3754372, "cell_id": "SKM_05188", "final_risk_score": 58.66746, "risk_level": "HIGH", "association_method": "direct_intersection", "distance_to_risk_m": 0.0, "exposure_interpretation": "POTENTIALLY EXPOSED TO ELEVATED LANDSLIDE RISK" }, "geometry": { "type": "Point", "coordinates": [ 88.7566799, 27.3754372 ] } },
{ "type": "Feature", "properties": { "osm_id": "342098820", "settlement_name": "Kabi", "place_type": "locality", "longitude": 88.61023, "latitude": 27.3999, "cell_id": "SKM_05014", "final_risk_score": 56.416037, "risk_level": "HIGH", "association_method": "direct_intersection", "distance_to_risk_m": 0.0, "exposure_interpretation": "POTENTIALLY EXPOSED TO ELEVATED LANDSLIDE RISK" }, "geometry": { "type": "Point", "coordinates": [ 88.61023, 27.3999 ] } },
{ "type": "Feature", "properties": { "osm_id": "8757615075", "settlement_name": "Tumlong", "place_type": "hamlet", "longitude": 88.5796567, "latitude": 27.4201667, "cell_id": "SKM_04857", "final_risk_score": 55.84686, "risk_level": "HIGH", "association_method": "direct_intersection", "distance_to_risk_m": 0.0, "exposure_interpretation": "POTENTIALLY EXPOSED TO ELEVATED LANDSLIDE RISK" }, "geometry": { "type": "Point", "coordinates": [ 88.5796567, 27.4201667 ] } },
{ "type": "Feature", "properties": { "osm_id": "342098838", "settlement_name": "Phodong", "place_type": "locality", "longitude": 88.57178, "latitude": 27.41089, "cell_id": "SKM_04932", "final_risk_score": 55.336233, "risk_level": "HIGH", "association_method": "direct_intersection", "distance_to_risk_m": 0.0, "exposure_interpretation": "POTENTIALLY EXPOSED TO ELEVATED LANDSLIDE RISK" }, "geometry": { "type": "Point", "coordinates": [ 88.57178, 27.41089 ] } },
{ "type": "Feature", "properties": { "osm_id": "4571035218", "settlement_name": "Sentam", "place_type": "village", "longitude": 88.5491178, "latitude": 27.5171438, "cell_id": "SKM_04044", "final_risk_score": 54.628721, "risk_level": "HIGH", "association_method": "direct_intersection", "distance_to_risk_m": 0.0, "exposure_interpretation": "POTENTIALLY EXPOSED TO ELEVATED LANDSLIDE RISK" }, "geometry": { "type": "Point", "coordinates": [ 88.5491178, 27.5171438 ] } },
{ "type": "Feature", "properties": { "osm_id": "342098499", "settlement_name": "Singh Khola", "place_type": "locality", "longitude": 88.12958, "latitude": 27.34909, "cell_id": "SKM_05459", "final_risk_score": 53.251676, "risk_level": "HIGH", "association_method": "direct_intersection", "distance_to_risk_m": 0.0, "exposure_interpretation": "POTENTIALLY EXPOSED TO ELEVATED LANDSLIDE RISK" }, "geometry": { "type": "Point", "coordinates": [ 88.12958, 27.34909 ] } },
{ "type": "Feature", "properties": { "osm_id": "342098638", "settlement_name": "Padamchen", "place_type": "locality", "longitude": 88.7673088, "latitude": 27.2376592, "cell_id": "SKM_06550", "final_risk_score": 52.909584, "risk_level": "HIGH", "association_method": "direct_intersection", "distance_to_risk_m": 0.0, "exposure_interpretation": "POTENTIALLY EXPOSED TO ELEVATED LANDSLIDE RISK" }, "geometry": { "type": "Point", "coordinates": [ 88.7673088, 27.2376592 ] } },
{ "type": "Feature", "properties": { "osm_id": "342098380", "settlement_name": "Legship", "place_type": "village", "longitude": 88.27515, "latitude": 27.28043, "cell_id": "SKM_06082", "final_risk_score": 52.898413, "risk_level": "HIGH", "association_method": "direct_intersection", "distance_to_risk_m": 0.0, "exposure_interpretation": "POTENTIALLY EXPOSED TO ELEVATED LANDSLIDE RISK" }, "geometry": { "type": "Point", "coordinates": [ 88.27515, 27.28043 ] } },
{ "type": "Feature", "properties": { "osm_id": "860041766", "settlement_name": "Rimbi Hare Khola", "place_type": "locality", "longitude": 88.1500332, "latitude": 27.3286295, "cell_id": "SKM_05631", "final_risk_score": 52.768963, "risk_level": "HIGH", "association_method": "direct_intersection", "distance_to_risk_m": 0.0, "exposure_interpretation": "POTENTIALLY EXPOSED TO ELEVATED LANDSLIDE RISK" }, "geometry": { "type": "Point", "coordinates": [ 88.1500332, 27.3286295 ] } },
{ "type": "Feature", "properties": { "osm_id": "342098648", "settlement_name": "Lingtam", "place_type": "locality", "longitude": 88.7395607, "latitude": 27.2268805, "cell_id": "SKM_06627", "final_risk_score": 51.097725, "risk_level": "HIGH", "association_method": "direct_intersection", "distance_to_risk_m": 0.0, "exposure_interpretation": "POTENTIALLY EXPOSED TO ELEVATED LANDSLIDE RISK" }, "geometry": { "type": "Point", "coordinates": [ 88.7395607, 27.2268805 ] } },
{ "type": "Feature", "properties": { "osm_id": "342098630", "settlement_name": "Dzuluk", "place_type": "locality", "longitude": 88.7772617, "latitude": 27.2525658, "cell_id": "SKM_06392", "final_risk_score": 51.068587, "risk_level": "HIGH", "association_method": "direct_intersection", "distance_to_risk_m": 0.0, "exposure_interpretation": "POTENTIALLY EXPOSED TO ELEVATED LANDSLIDE RISK" }, "geometry": { "type": "Point", "coordinates": [ 88.7772617, 27.2525658 ] } },
{ "type": "Feature", "properties": { "osm_id": "342098547", "settlement_name": "Nambu", "place_type": "locality", "longitude": 88.15979, "latitude": 27.31339, "cell_id": "SKM_05806", "final_risk_score": 50.569882, "risk_level": "HIGH", "association_method": "direct_intersection", "distance_to_risk_m": 0.0, "exposure_interpretation": "POTENTIALLY EXPOSED TO ELEVATED LANDSLIDE RISK" }, "geometry": { "type": "Point", "coordinates": [ 88.15979, 27.31339 ] } },
{ "type": "Feature", "properties": { "osm_id": "860042152", "settlement_name": "Shankola", "place_type": "locality", "longitude": 88.1340354, "latitude": 27.3468135, "cell_id": "SKM_05460", "final_risk_score": 50.330997, "risk_level": "HIGH", "association_method": "direct_intersection", "distance_to_risk_m": 0.0, "exposure_interpretation": "POTENTIALLY EXPOSED TO ELEVATED LANDSLIDE RISK" }, "geometry": { "type": "Point", "coordinates": [ 88.1340354, 27.3468135 ] } },
{ "type": "Feature", "properties": { "osm_id": "342098371", "settlement_name": "Reshi", "place_type": "village", "longitude": 88.3054235, "latitude": 27.2218926, "cell_id": "SKM_06663", "final_risk_score": 50.289936, "risk_level": "HIGH", "association_method": "direct_intersection", "distance_to_risk_m": 0.0, "exposure_interpretation": "POTENTIALLY EXPOSED TO ELEVATED LANDSLIDE RISK" }, "geometry": { "type": "Point", "coordinates": [ 88.305423500000018, 27.2218926 ] } }
]
}
